{
"type": "FeatureCollection",
"name": "locations",
"crs": { "type": "name", "properties": { "name": "urn:ogc:def:crs:EPSG::3034" } },
"features": [
{ "type": "Feature", "properties": { "address": "Antwerp", "long": 3622547.5979754706, "lat": 2730621.7301056422 }, "geometry": { "type": "Point", "coordinates": [ 3622547.597975470591336, 2730621.730105642229319 ] } },
{ "type": "Feature", "properties": { "address": "Bremen", "long": 3922748.6561791436, "lat": 2916275.6631397656 }, "geometry": { "type": "Point", "coordinates": [ 3922748.656179143581539, 2916275.663139765616506 ] } },
{ "type": "Feature", "properties": { "address": "Cologne", "long": 3793718.4863597965, "lat": 2690180.8009762126 }, "geometry": { "type": "Point", "coordinates": [ 3793718.486359796486795, 2690180.800976212602109 ] } },
{ "type": "Feature", "properties": { "address": "Frankfurt", "long": 3908966.9379077801, "lat": 2597837.4513855944 }, "geometry": { "type": "Point", "coordinates": [ 3908966.937907780054957, 2597837.451385594438761 ] } },
{ "type": "Feature", "properties": { "address": "Stade", "long": 3966426.8339639246, "lat": 2972135.7062964137 }, "geometry": { "type": "Point", "coordinates": [ 3966426.833963924553245, 2972135.706296413671225 ] } },
{ "type": "Feature", "properties": { "address": "Utrecht", "long": 3677287.8771767393, "lat": 2820403.8738615997 }, "geometry": { "type": "Point", "coordinates": [ 3677287.877176739275455, 2820403.873861599713564 ] } },
{ "type": "Feature", "properties": { "address": "Leiden", "long": 3636191.4312515641, "lat": 2830706.6959321904 }, "geometry": { "type": "Point", "coordinates": [ 3636191.431251564063132, 2830706.695932190399617 ] } },
{ "type": "Feature", "properties": { "address": "Dordrecht", "long": 3645276.4137561941, "lat": 2792859.2566202227 }, "geometry": { "type": "Point", "coordinates": [ 3645276.413756194058806, 2792859.256620222702622 ] } },
{ "type": "Feature", "properties": { "address": "Haarlem", "long": 3647726.9942062488, "lat": 2854542.7560827844 }, "geometry": { "type": "Point", "coordinates": [ 3647726.994206248782575, 2854542.756082784384489 ] } },
{ "type": "Feature", "properties": { "address": "London", "long": 3323088.1033532731, "lat": 2793535.2194860862 }, "geometry": { "type": "Point", "coordinates": [ 3323088.103353273123503, 2793535.21948608616367 ] } },
{ "type": "Feature", "properties": { "address": "Venice", "long": 4175401.6512718108, "lat": 2093665.3527750636 }, "geometry": { "type": "Point", "coordinates": [ 4175401.651271810755134, 2093665.352775063598529 ] } },
{ "type": "Feature", "properties": { "address": "Verona", "long": 4074787.0568873514, "lat": 2095504.5601277775 }, "geometry": { "type": "Point", "coordinates": [ 4074787.056887351442128, 2095504.560127777513117 ] } },
{ "type": "Feature", "properties": { "address": "Naples", "long": 4350832.9108845815, "lat": 1606534.2395966321 }, "geometry": { "type": "Point", "coordinates": [ 4350832.910884581506252, 1606534.239596632076427 ] } },
{ "type": "Feature", "properties": { "address": "Amsterdam", "long": 3664251.7935219565, "lat": 2851705.1389752142 }, "geometry": { "type": "Point", "coordinates": [ 3664251.793521956540644, 2851705.138975214213133 ] } },
{ "type": "Feature", "properties": { "address": "Middelburg", "long": 3572281.2986704884, "lat": 2764733.9540545875 }, "geometry": { "type": "Point", "coordinates": [ 3572281.298670488409698, 2764733.954054587520659 ] } },
{ "type": "Feature", "properties": { "address": "Hamburg", "long": 4000084.3548366805, "lat": 2966677.4358229605 }, "geometry": { "type": "Point", "coordinates": [ 4000084.354836680460721, 2966677.435822960454971 ] } },
{ "type": "Feature", "properties": { "address": "Strasbourg", "long": 3839659.0899945293, "lat": 2435521.4883701825 }, "geometry": { "type": "Point", "coordinates": [ 3839659.089994529262185, 2435521.488370182458311 ] } },
{ "type": "Feature", "properties": { "address": "Augsburg", "long": 4064300.543453549, "lat": 2410304.024920953 }, "geometry": { "type": "Point", "coordinates": [ 4064300.543453549034894, 2410304.024920952972025 ] } },
{ "type": "Feature", "properties": { "address": "Nuremberg", "long": 4075443.000621954, "lat": 2527025.158754223 }, "geometry": { "type": "Point", "coordinates": [ 4075443.000621953979135, 2527025.158754223026335 ] } },
{ "type": "Feature", "properties": { "address": "Seville", "long": 2607841.291665663, "lat": 1370831.101217502 }, "geometry": { "type": "Point", "coordinates": [ 2607841.291665663011372, 1370831.101217502029613 ] } },
{ "type": "Feature", "properties": { "address": "Lisbon", "long": 2377118.354630799, "lat": 1575581.6467919084 }, "geometry": { "type": "Point", "coordinates": [ 2377118.354630799032748, 1575581.646791908424348 ] } },
{ "type": "Feature", "properties": { "address": "Kortrijk", "long": 3542483.5160574289, "lat": 2694904.8410522081 }, "geometry": { "type": "Point", "coordinates": [ 3542483.516057428903878, 2694904.841052208095789 ] } },
{ "type": "Feature", "properties": { "address": "Valenciennes", "long": 3555515.8267994826, "lat": 2643079.3707031161 }, "geometry": { "type": "Point", "coordinates": [ 3555515.826799482572824, 2643079.370703116059303 ] } },
{ "type": "Feature", "properties": { "address": "Breda", "long": 3650657.273230752, "lat": 2768167.0656850669 }, "geometry": { "type": "Point", "coordinates": [ 3650657.273230751976371, 2768167.065685066860169 ] } },
{ "type": "Feature", "properties": { "address": "Oudenaarde", "long": 3565545.3405440538, "lat": 2694546.7080496489 }, "geometry": { "type": "Point", "coordinates": [ 3565545.340544053819031, 2694546.708049648907036 ] } },
{ "type": "Feature", "properties": { "address": "Lier", "long": 3633270.4039059095, "lat": 2720119.9274439448 }, "geometry": { "type": "Point", "coordinates": [ 3633270.403905909508467, 2720119.927443944849074 ] } },
{ "type": "Feature", "properties": { "address": "Hulst", "long": 3602513.2408461669, "lat": 2744091.1548659038 }, "geometry": { "type": "Point", "coordinates": [ 3602513.240846166852862, 2744091.154865903779864 ] } },
{ "type": "Feature", "properties": { "address": "Zutphen", "long": 3748480.7966015618, "lat": 2821490.1765935686 }, "geometry": { "type": "Point", "coordinates": [ 3748480.796601561829448, 2821490.176593568641692 ] } },
{ "type": "Feature", "properties": { "address": "Bruges", "long": 3543572.0305253635, "lat": 2735895.7580701769 }, "geometry": { "type": "Point", "coordinates": [ 3543572.030525363516062, 2735895.758070176932961 ] } },
{ "type": "Feature", "properties": { "address": "Ghent", "long": 3575653.2074241056, "lat": 2716369.370736334 }, "geometry": { "type": "Point", "coordinates": [ 3575653.207424105610698, 2716369.370736334007233 ] } },
{ "type": "Feature", "properties": { "address": "Brussels", "long": 3616300.8357465211, "lat": 2690764.256197419 }, "geometry": { "type": "Point", "coordinates": [ 3616300.835746521130204, 2690764.256197419017553 ] } },
{ "type": "Feature", "properties": { "address": "Mechelen", "long": 3626425.1852693185, "lat": 2709540.1396562532 }, "geometry": { "type": "Point", "coordinates": [ 3626425.185269318521023, 2709540.139656253159046 ] } },
{ "type": "Feature", "properties": { "address": "Nijmegen", "long": 3723189.0174632673, "lat": 2790878.9221029282 }, "geometry": { "type": "Point", "coordinates": [ 3723189.017463267315179, 2790878.922102928161621 ] } },
{ "type": "Feature", "properties": { "address": "Delft", "long": 3626433.6435791953, "lat": 2814198.0916919606 }, "geometry": { "type": "Point", "coordinates": [ 3626433.643579195253551, 2814198.091691960580647 ] } },
{ "type": "Feature", "properties": { "address": "Geertruidenberg", "long": 3658254.3999829972, "lat": 2779200.4362428645 }, "geometry": { "type": "Point", "coordinates": [ 3658254.399982997216284, 2779200.436242864467204 ] } },
{ "type": "Feature", "properties": { "address": "Enkhuizen", "long": 3692619.278781211, "lat": 2885430.310709286 }, "geometry": { "type": "Point", "coordinates": [ 3692619.278781211003661, 2885430.310709286015481 ] } }
]
}
